{
  "norad_id": 61017,
  "name": "GEESAT-3 07",
  "history": [
    {
      "epoch": "2026-03-28T21:48:22.258080Z",
      "apogee_km": 624.7003194574063,
      "perigee_km": 609.2966114543442,
      "latitude_deg": 1.7543098245342537e-06,
      "longitude_deg": -58.14202457078805,
      "height_km": 616.6721957711572,
      "semi_major_axis_km": 6995.1354654558745,
      "eccentricity": 0.00110103,
      "inclination_deg": 49.9921,
      "raan_deg": 95.273,
      "arg_perigee_deg": 83.6736,
      "mean_anomaly_deg": 276.5456,
      "mean_motion_rev_day": 14.83913439
    },
    {
      "epoch": "2026-03-29T04:16:15.266208Z",
      "apogee_km": 624.6926041551278,
      "perigee_km": 609.2837424234067,
      "latitude_deg": 6.446777658258205e-06,
      "longitude_deg": -156.62728459919526,
      "height_km": 616.8103940781988,
      "semi_major_axis_km": 6995.125173289267,
      "eccentricity": 0.0011014,
      "inclination_deg": 49.992,
      "raan_deg": 94.0241,
      "arg_perigee_deg": 84.7863,
      "mean_anomaly_deg": 275.4332,
      "mean_motion_rev_day": 14.83916714
    },
    {
      "epoch": "2026-03-30T04:30:48.861792Z",
      "apogee_km": 624.6711550989803,
      "perigee_km": 609.2651355269436,
      "latitude_deg": -6.18046889604674e-05,
      "longitude_deg": -165.94663343164578,
      "height_km": 617.3228603778662,
      "semi_major_axis_km": 6995.105145312962,
      "eccentricity": 0.0011012,
      "inclination_deg": 49.9917,
      "raan_deg": 89.3404,
      "arg_perigee_deg": 88.7543,
      "mean_anomaly_deg": 271.4656,
      "mean_motion_rev_day": 14.83923087
    },
    {
      "epoch": "2026-03-30T06:07:47.083584Z",
      "apogee_km": 624.6712246066718,
      "perigee_km": 609.2615714291096,
      "latitude_deg": -1.7480706061854364e-05,
      "longitude_deg": 169.4321389921377,
      "height_km": 617.3567985657007,
      "semi_major_axis_km": 6995.10339801789,
      "eccentricity": 0.00110146,
      "inclination_deg": 49.9917,
      "raan_deg": 89.0281,
      "arg_perigee_deg": 89.0202,
      "mean_anomaly_deg": 271.1998,
      "mean_motion_rev_day": 14.83923643
    },
    {
      "epoch": "2026-03-30T12:35:39.935328Z",
      "apogee_km": 624.6663675114078,
      "perigee_km": 609.2512748502713,
      "latitude_deg": 7.087761068329867e-06,
      "longitude_deg": 70.94744919652132,
      "height_km": 617.4836345589187,
      "semi_major_axis_km": 6995.095821180839,
      "eccentricity": 0.00110185,
      "inclination_deg": 49.9917,
      "raan_deg": 87.7791,
      "arg_perigee_deg": 90.02,
      "mean_anomaly_deg": 270.2001,
      "mean_motion_rev_day": 14.83926054
    },
    {
      "epoch": "2026-03-30T22:17:29.152032Z",
      "apogee_km": 624.6513603883523,
      "perigee_km": 609.2441266339883,
      "latitude_deg": 1.135623943967477e-05,
      "longitude_deg": -76.77945820293964,
      "height_km": 617.6853785852708,
      "semi_major_axis_km": 6995.08474351117,
      "eccentricity": 0.00110129,
      "inclination_deg": 49.9918,
      "raan_deg": 85.9055,
      "arg_perigee_deg": 91.6029,
      "mean_anomaly_deg": 268.6171,
      "mean_motion_rev_day": 14.83929579
    },
    {
      "epoch": "2026-03-31T20:55:03.769824Z",
      "apogee_km": 624.6294918890162,
      "perigee_km": 609.2235639750988,
      "latitude_deg": -1.3265006640348486e-05,
      "longitude_deg": -61.47444666308022,
      "height_km": 618.1508036463398,
      "semi_major_axis_km": 6995.063527932058,
      "eccentricity": 0.0011012,
      "inclination_deg": 49.9919,
      "raan_deg": 81.534,
      "arg_perigee_deg": 95.229,
      "mean_anomaly_deg": 264.9905,
      "mean_motion_rev_day": 14.8393633
    },
    {
      "epoch": "2026-04-01T19:32:37.940064Z",
      "apogee_km": 624.6161122142585,
      "perigee_km": 609.1976365063929,
      "latitude_deg": -1.846274609446966e-05,
      "longitude_deg": -46.16774912460992,
      "height_km": 618.6295218992278,
      "semi_major_axis_km": 6995.043874360325,
      "eccentricity": 0.0011021,
      "inclination_deg": 49.992,
      "raan_deg": 77.1623,
      "arg_perigee_deg": 98.9564,
      "mean_anomaly_deg": 261.2622,
      "mean_motion_rev_day": 14.83942584
    },
    {
      "epoch": "2026-04-02T19:47:09.788640Z",
      "apogee_km": 624.5830344141714,
      "perigee_km": 609.157644229499,
      "latitude_deg": -2.4998209063078607e-05,
      "longitude_deg": -55.48004713796988,
      "height_km": 619.1201511318691,
      "semi_major_axis_km": 6995.0073393218345,
      "eccentricity": 0.0011026,
      "inclination_deg": 49.9922,
      "raan_deg": 72.4783,
      "arg_perigee_deg": 102.9391,
      "mean_anomaly_deg": 257.2779,
      "mean_motion_rev_day": 14.8395421
    },
    {
      "epoch": "2026-04-02T23:01:05.988576Z",
      "apogee_km": 624.5813131589621,
      "perigee_km": 609.1524331159826,
      "latitude_deg": 9.777021957179588e-06,
      "longitude_deg": -104.72152934521355,
      "height_km": 619.1887919508594,
      "semi_major_axis_km": 6995.003873137472,
      "eccentricity": 0.00110285,
      "inclination_deg": 49.9922,
      "raan_deg": 71.8537,
      "arg_perigee_deg": 103.4859,
      "mean_anomaly_deg": 256.7309,
      "mean_motion_rev_day": 14.83955313
    },
    {
      "epoch": "2026-04-03T20:01:41.099808Z",
      "apogee_km": 624.565016171322,
      "perigee_km": 609.1173063999386,
      "latitude_deg": -3.207380563275629e-05,
      "longitude_deg": -64.7897010160867,
      "height_km": 619.5969336075095,
      "semi_major_axis_km": 6994.9781612856295,
      "eccentricity": 0.0011042,
      "inclination_deg": 49.9924,
      "raan_deg": 67.7947,
      "arg_perigee_deg": 106.8004,
      "mean_anomaly_deg": 253.4146,
      "mean_motion_rev_day": 14.83963495
    },
    {
      "epoch": "2026-04-04T20:16:11.755200Z",
      "apogee_km": 624.5540440583136,
      "perigee_km": 609.0812044294853,
      "latitude_deg": 2.5251697197760458e-05,
      "longitude_deg": -74.09666212872148,
      "height_km": 620.0790042634503,
      "semi_major_axis_km": 6994.954624243899,
      "eccentricity": 0.001106,
      "inclination_deg": 49.9928,
      "raan_deg": 63.111,
      "arg_perigee_deg": 110.7228,
      "mean_anomaly_deg": 249.4897,
      "mean_motion_rev_day": 14.83970985
    },
    {
      "epoch": "2026-04-05T10:48:53.906688Z",
      "apogee_km": 624.5353697496876,
      "perigee_km": 609.0667637089218,
      "latitude_deg": 7.774840907447048e-05,
      "longitude_deg": 64.32010588520929,
      "height_km": 620.3720492208499,
      "semi_major_axis_km": 6994.938066729304,
      "eccentricity": 0.0011057,
      "inclination_deg": 49.9931,
      "raan_deg": 60.3007,
      "arg_perigee_deg": 113.1982,
      "mean_anomaly_deg": 247.0123,
      "mean_motion_rev_day": 14.83976254
    },
    {
      "epoch": "2026-04-05T20:30:41.944032Z",
      "apogee_km": 624.5274389345313,
      "perigee_km": 609.058850412599,
      "latitude_deg": 2.995021869714764e-05,
      "longitude_deg": -83.40171871355331,
      "height_km": 620.5625139241656,
      "semi_major_axis_km": 6994.930144673564,
      "eccentricity": 0.0011057,
      "inclination_deg": 49.9932,
      "raan_deg": 58.4273,
      "arg_perigee_deg": 114.8043,
      "mean_anomaly_deg": 245.4047,
      "mean_motion_rev_day": 14.83978775
    },
    {
      "epoch": "2026-04-06T04:35:31.923744Z",
      "apogee_km": 624.5273124849891,
      "perigee_km": 609.045169079237,
      "latitude_deg": 3.3587561045749215e-05,
      "longitude_deg": 153.49707839430488,
      "height_km": 620.7140962179609,
      "semi_major_axis_km": 6994.923240782113,
      "eccentricity": 0.00110667,
      "inclination_deg": 49.9933,
      "raan_deg": 56.8662,
      "arg_perigee_deg": 116.078,
      "mean_anomaly_deg": 244.1299,
      "mean_motion_rev_day": 14.83980972
    },
    {
      "epoch": "2026-04-07T08:03:57.511584Z",
      "apogee_km": 624.5076214893397,
      "perigee_km": 609.0227267504024,
      "latitude_deg": -3.5922914285786833e-06,
      "longitude_deg": 94.95392054482757,
      "height_km": 621.2156370718899,
      "semi_major_axis_km": 6994.90217411987,
      "eccentricity": 0.00110687,
      "inclination_deg": 49.9936,
      "raan_deg": 51.558,
      "arg_perigee_deg": 120.4565,
      "mean_anomaly_deg": 239.7468,
      "mean_motion_rev_day": 14.83987676
    },
    {
      "epoch": "2026-04-07T20:59:41.209728Z",
      "apogee_km": 624.5042746478402,
      "perigee_km": 609.0133783504753,
      "latitude_deg": 2.055609686200466e-05,
      "longitude_deg": -102.00710363319163,
      "height_km": 621.4582461356702,
      "semi_major_axis_km": 6994.895826499158,
      "eccentricity": 0.0011073,
      "inclination_deg": 49.9937,
      "raan_deg": 49.06,
      "arg_perigee_deg": 122.5995,
      "mean_anomaly_deg": 237.6014,
      "mean_motion_rev_day": 14.83989696
    },
    {
      "epoch": "2026-04-08T08:18:26.851968Z",
      "apogee_km": 624.520764429275,
      "perigee_km": 608.9824587652456,
      "latitude_deg": -1.9776471522144224e-05,
      "longitude_deg": 85.65249007073756,
      "height_km": 621.6474734917718,
      "semi_major_axis_km": 6994.88861159726,
      "eccentricity": 0.00111069,
      "inclination_deg": 49.9937,
      "raan_deg": 46.8744,
      "arg_perigee_deg": 124.2191,
      "mean_anomaly_deg": 235.9801,
      "mean_motion_rev_day": 14.83991992
    },
    {
      "epoch": "2026-04-09T19:51:41.353344Z",
      "apogee_km": 624.5041074848041,
      "perigee_km": 608.9503274108865,
      "latitude_deg": -9.033544036195459e-06,
      "longitude_deg": -95.98757984027404,
      "height_km": 622.260681570945,
      "semi_major_axis_km": 6994.864217447845,
      "eccentricity": 0.0011118,
      "inclination_deg": 49.9939,
      "raan_deg": 40.0049,
      "arg_perigee_deg": 130.0594,
      "mean_anomaly_deg": 230.1321,
      "mean_motion_rev_day": 14.83999755
    }
  ]
}